CTC1_L_00181016-03
1 86527U 26247RR  26037.47803241  .00000000  00000+0  00000-0 0  9995
2 86527 100.0000 180.0000 0000000   0.0000   0.0000 13.89609337    10
CTC1_L_00181016-04
1 86528U 26811TP  26037.47803241  .00000000  00000+0  00000-0 0  9993
2 86528 100.0000 180.0000 0000000   0.0000  90.0000 13.89609337    10
CTC1_L_00181017-01
1 86529U 25166VE  26037.47803241  .00000000  00000+0  00000-0 0  9996
2 86529 100.0000 192.0000 0000000   0.0000 192.0000 13.89609337    17
CTC1_L_00181017-02
1 86530U 23474YW  26037.47803241  .00000000  00000+0  00000-0 0  9998
2 86530 100.0000 192.0000 0000000   0.0000 282.0000 13.89609337    19
CTC1_L_00181017-03
1 86531U 24436JT  26037.47803241  .00000000  00000+0  00000-0 0  9998
2 86531 100.0000 192.0000 0000000   0.0000  12.0000 13.89609337    11
CTC1_L_00181017-04
1 86532U 23443NZ  26037.47803241  .00000000  00000+0  00000-0 0  9996
2 86532 100.0000 192.0000 0000000   0.0000 102.0000 13.89609337    12
CTC1_L_00181018-01
1 86533U 26375WC  26037.47803241  .00000000  00000+0  00000-0 0  9994
2 86533 100.0000 204.0000 0000000   0.0000 204.0000 13.89609337    10
CTC1_L_00181018-02
1 86534U 23358ZZ  26037.47803241  .00000000  00000+0  00000-0 0  9993
2 86534 100.0000 204.0000 0000000   0.0000 294.0000 13.89609337    10
CTC1_L_00181018-03
1 86535U 22307GY  26037.47803241  .00000000  00000+0  00000-0 0  9997
2 86535 100.0000 204.0000 0000000   0.0000  24.0000 13.89609337    12
CTC1_L_00181018-04
1 86536U 24281RM  26037.47803241  .00000000  00000+0  00000-0 0  9991
2 86536 100.0000 204.0000 0000000   0.0000 114.0000 13.89609337    13
CTC1_L_00181019-01
1 86537U 24438WL  26037.47803241  .00000000  00000+0  00000-0 0  9996
2 86537 100.0000 216.0000 0000000   0.0000 216.0000 13.89609337    10
CTC1_L_00181019-02
1 86538U 26175O   26037.47803241  .00000000  00000+0  00000-0 0  9997
2 86538 100.0000 216.0000 0000000   0.0000 306.0000 13.89609337    11
CTC1_L_00181019-03
1 86539U 26739VJ  26037.47803241  .00000000  00000+0  00000-0 0  9994
2 86539 100.0000 216.0000 0000000   0.0000  36.0000 13.89609337    12
CTC1_L_00181019-04
1 86540U 25523RM  26037.47803241  .00000000  00000+0  00000-0 0  9996
2 86540 100.0000 216.0000 0000000   0.0000 126.0000 13.89609337    14
CTC1_L_00181020-01
1 86541U 22412WT  26037.47803241  .00000000  00000+0  00000-0 0  9991
2 86541 100.0000 228.0000 0000000   0.0000 228.0000 13.89609337    11
CTC1_L_00181020-02
1 86542U 25722T   26037.47803241  .00000000  00000+0  00000-0 0  9999
2 86542 100.0000 228.0000 0000000   0.0000 318.0000 13.89609337    12
CTC1_L_00181020-03
1 86543U 22265BR  26037.47803241  .00000000  00000+0  00000-0 0  9999
2 86543 100.0000 228.0000 0000000   0.0000  48.0000 13.89609337    13
CTC1_L_00181020-04
1 86544U 22331GE  26037.47803241  .00000000  00000+0  00000-0 0  9994
2 86544 100.0000 228.0000 0000000   0.0000 138.0000 13.89609337    14
CTC1_L_00181021-01
1 86545U 24206FB  26037.47803241  .00000000  00000+0  00000-0 0  9998
2 86545 100.0000 240.0000 0000000   0.0000 240.0000 13.89609337    13
CTC1_L_00181021-02
1 86546U 23823AL  26037.47803241  .00000000  00000+0  00000-0 0  9993
2 86546 100.0000 240.0000 0000000   0.0000 330.0000 13.89609337    14
CTC1_L_00181021-03
1 86547U 22483JK  26037.47803241  .00000000  00000+0  00000-0 0  9995
2 86547 100.0000 240.0000 0000000   0.0000  60.0000 13.89609337    15
CTC1_L_00181021-04
1 86548U 23005IG  26037.47803241  .00000000  00000+0  00000-0 0  9997
2 86548 100.0000 240.0000 0000000   0.0000 150.0000 13.89609337    16
CTC1_L_00181022-01
1 86549U 26297CG  26037.47803241  .00000000  00000+0  00000-0 0  9994
2 86549 100.0000 252.0000 0000000   0.0000 252.0000 13.89609337    13
CTC1_L_00181022-02
1 86550U 22808AV  26037.47803241  .00000000  00000+0  00000-0 0  9990
2 86550 100.0000 252.0000 0000000   0.0000 342.0000 13.89609337    15
CTC1_L_00181022-03
1 86551U 26185MP  26037.47803241  .00000000  00000+0  00000-0 0  9993
2 86551 100.0000 252.0000 0000000   0.0000  72.0000 13.89609337    16
CTC1_L_00181022-04
1 86552U 25755IS  26037.47803241  .00000000  00000+0  00000-0 0  9996
2 86552 100.0000 252.0000 0000000   0.0000 162.0000 13.89609337    17
CTC1_L_00181023-01
1 86553U 26742HU  26037.47803241  .00000000  00000+0  00000-0 0  9994
2 86553 100.0000 264.0000 0000000   0.0000 264.0000 13.89609337    14
CTC1_L_00181023-02
1 86554U 24965HC  26037.47803241  .00000000  00000+0  00000-0 0  9990
2 86554 100.0000 264.0000 0000000   0.0000 354.0000 13.89609337    15
CTC1_L_00181023-03
1 86555U 24216DQ  26037.47803241  .00000000  00000+0  00000-0 0  9990
2 86555 100.0000 264.0000 0000000   0.0000  84.0000 13.89609337    16
CTC1_L_00181023-04
1 86556U 24439ZR  26037.47803241  .00000000  00000+0  00000-0 0  9998
2 86556 100.0000 264.0000 0000000   0.0000 174.0000 13.89609337    17
CTC1_L_00181024-01
1 86557U 22012T   26037.47803241  .00000000  00000+0  00000-0 0  9994
2 86557 100.0000 276.0000 0000000   0.0000 276.0000 13.89609337    14
CTC1_L_00181024-02
1 86558U 23480MR  26037.47803241  .00000000  00000+0  00000-0 0  9995
2 86558 100.0000 276.0000 0000000   0.0000   6.0000 13.89609337    16
CTC1_L_00181024-03
1 86559U 24480PX  26037.47803241  .00000000  00000+0  00000-0 0  9997
2 86559 100.0000 276.0000 0000000   0.0000  96.0000 13.89609337    16
CTC1_L_00181024-04
1 86560U 22150AC  26037.47803241  .00000000  00000+0  00000-0 0  9991
2 86560 100.0000 276.0000 0000000   0.0000 186.0000 13.89609337    18
CTC1_L_00181025-01
1 86561U 23093CO  26037.47803241  .00000000  00000+0  00000-0 0  9999
2 86561 100.0000 288.0000 0000000   0.0000 288.0000 13.89609337    15
CTC1_L_00181025-02
1 86562U 25826RL  26037.47803241  .00000000  00000+0  00000-0 0  9996
2 86562 100.0000 288.0000 0000000   0.0000  18.0000 13.89609337    17
CTC1_L_00181025-03
1 86563U 23532XM  26037.47803241  .00000000  00000+0  00000-0 0  9999
2 86563 100.0000 288.0000 0000000   0.0000 108.0000 13.89609337    18
CTC1_L_00181025-04
1 86564U 24971XS  26037.47803241  .00000000  00000+0  00000-0 0  9998
2 86564 100.0000 288.0000 0000000   0.0000 198.0000 13.89609337    18
CTC1_L_00181026-01
1 86565U 22490GN  26037.47803241  .00000000  00000+0  00000-0 0  9993
2 86565 100.0000 300.0000 0000000   0.0000 300.0000 13.89609337    19
CTC1_L_00181026-02
1 86566U 23342DE  26037.47803241  .00000000  00000+0  00000-0 0  9991
2 86566 100.0000 300.0000 0000000   0.0000  30.0000 13.89609337    10
CTC1_L_00181026-03
1 86567U 24976JK  26037.47803241  .00000000  00000+0  00000-0 0  9996
2 86567 100.0000 300.0000 0000000   0.0000 120.0000 13.89609337    11
CTC1_L_00181026-04
1 86568U 22841FB  26037.47803241  .00000000  00000+0  00000-0 0  9996
2 86568 100.0000 300.0000 0000000   0.0000 210.0000 13.89609337    12
CTC1_L_00181027-01
1 86569U 23806GZ  26037.47803241  .00000000  00000+0  00000-0 0  9999
2 86569 100.0000 312.0000 0000000   0.0000 312.0000 13.89609337    19
CTC1_L_00181027-02
1 86570U 26125PV  26037.47803241  .00000000  00000+0  00000-0 0  9998
2 86570 100.0000 312.0000 0000000   0.0000  42.0000 13.89609337    11
CTC1_L_00181027-03
1 86571U 22273UX  26037.47803241  .00000000  00000+0  00000-0 0  9999
2 86571 100.0000 312.0000 0000000   0.0000 132.0000 13.89609337    12
CTC1_L_00181027-04
1 86572U 24922TM  26037.47803241  .00000000  00000+0  00000-0 0  9993
2 86572 100.0000 312.0000 0000000   0.0000 222.0000 13.89609337    13
CTC1_L_00181028-01
1 86573U 23164QG  26037.47803241  .00000000  00000+0  00000-0 0  9991
2 86573 100.0000 324.0000 0000000   0.0000 324.0000 13.89609337    10
CTC1_L_00181028-02
1 86574U 25610XP  26037.47803241  .00000000  00000+0  00000-0 0  9990
2 86574 100.0000 324.0000 0000000   0.0000  54.0000 13.89609337    11
CTC1_L_00181028-03
1 86575U 22883T   26037.47803241  .00000000  00000+0  00000-0 0  9990
2 86575 100.0000 324.0000 0000000   0.0000 144.0000 13.89609337    12
CTC1_L_00181028-04
1 86576U 23654SR  26037.47803241  .00000000  00000+0  00000-0 0  9998
2 86576 100.0000 324.0000 0000000   0.0000 234.0000 13.89609337    13
CTC1_L_00181029-01
1 86577U 24180IX  26037.47803241  .00000000  00000+0  00000-0 0  9994
2 86577 100.0000 336.0000 0000000   0.0000 336.0000 13.89609337    10
CTC1_L_00181029-02
1 86578U 24902TY  26037.47803241  .00000000  00000+0  00000-0 0  9997
2 86578 100.0000 336.0000 0000000   0.0000  66.0000 13.89609337    11
CTC1_L_00181029-03
1 86579U 23188FC  26037.47803241  .00000000  00000+0  00000-0 0  9993
2 86579 100.0000 336.0000 0000000   0.0000 156.0000 13.89609337    12
CTC1_L_00181029-04
1 86580U 26696HA  26037.47803241  .00000000  00000+0  00000-0 0  9992
2 86580 100.0000 336.0000 0000000   0.0000 246.0000 13.89609337    14
CTC1_L_00181030-01
1 86581U 22156BE  26037.47803241  .00000000  00000+0  00000-0 0  9990
2 86581 100.0000 348.0000 0000000   0.0000 348.0000 13.89609337    11
CTC1_L_00181030-02
1 86582U 26679GP  26037.47803241  .00000000  00000+0  00000-0 0  9995
2 86582 100.0000 348.0000 0000000   0.0000  78.0000 13.89609337    12
CTC1_L_00181030-03
1 86583U 26370IJ  26037.47803241  .00000000  00000+0  00000-0 0  9994
2 86583 100.0000 348.0000 0000000   0.0000 168.0000 13.89609337    13
CTC1_L_00181030-04
1 86584U 22644KN  26037.47803241  .00000000  00000+0  00000-0 0  9995
2 86584 100.0000 348.0000 0000000   0.0000 258.0000 13.89609337    14
